FLOCK 3P-9              
1 41973U 17008AB  17264.64333179  .00001710  00000-0  75615-4 0  9993
2 41973  97.4869 325.6879 0007821 203.1581 156.9304 15.23053559 33133
FLOCK 3P-10             
1 41974U 17008AC  17263.91073284  .00002920  00000-0  12683-3 0  9990
2 41974  97.4873 324.9833 0007508 207.5664 152.5176 15.23094063 32912
FLOCK 3P-11             
1 41975U 17008AD  17263.85732549  .00001761  00000-0  77679-4 0  9999
2 41975  97.4871 324.8985 0007787 207.2853 152.7976 15.23101000 32789
FLOCK 3P-60             
1 41976U 17008AE  17263.89912660  .00002839  00000-0  12348-3 0  9996
2 41976  97.4874 325.0001 0007365 208.8452 151.2379 15.23069853 32273
FLOCK 3P-58             
1 41977U 17008AF  17264.63979503  .00003416  00000-0  14829-3 0  9997
2 41977  97.4869 325.6905 0007553 204.7233 155.3642 15.22991430 33215
FLOCK 3P-57             
1 41978U 17008AG  17263.91145237  .00002980  00000-0  12954-3 0  9999
2 41978  97.4871 324.9785 0007581 206.2462 153.8391 15.23051501 32949
FLOCK 3P-75             
1 41979U 17008AH  17264.63255671  .00003585  00000-0  15523-3 0  9991
2 41979  97.4890 325.7686 0007799 207.2782 152.8046 15.23047972 33200
FLOCK 3P-70             
1 41980U 17008AJ  17263.90932812  .00004311  00000-0  18583-3 0  9998
2 41980  97.4893 325.0506 0007650 209.1295 150.9515 15.23079747 32940
FLOCK 3P-73             
1 41981U 17008AK  17264.63931468  .00003935  00000-0  17020-3 0  9992
2 41981  97.4891 325.7624 0007973 207.9169 152.1640 15.23022587 33181
FLOCK 3P-88             
1 41982U 17008AL  17263.90594271  .00001496  00000-0  66522-4 0  9991
2 41982  97.4891 325.0471 0007703 210.2051 149.8742 15.23066190 32041
FLOCK 3P-85             
1 41983U 17008AM  17263.89350660  .00003054  00000-0  13249-3 0  9991
2 41983  97.4894 325.0691 0007558 213.8832 146.1922 15.23093736 32948
FLOCK 3P-79             
1 41984U 17008AN  17264.15724306  .00003227  00000-0  13984-3 0  9992
2 41984  97.4893 325.3296 0007246 211.9928 148.0870 15.23098348 32982
FLOCK 3P-86             
1 41985U 17008AP  17263.89512657  .00003694  00000-0  15967-3 0  9998
2 41985  97.4892 325.0625 0007221 212.1483 147.9314 15.23090738 32938
FLOCK 3P-36             
1 41986U 17008AQ  17263.89771849  .00005428  00000-0  23281-3 0  9994
2 41986  97.4876 325.0056 0007018 209.0157 151.0690 15.23138564 32423
FLOCK 3P-30             
1 41987U 17008AR  17263.88858434  .00002847  00000-0  12372-3 0  9991
2 41987  97.4876 325.0191 0006917 210.4677 149.6158 15.23095287 32891
FLOCK 3P-34             
1 41988U 17008AS  17263.90060839  .00001807  00000-0  79651-4 0  9998
2 41988  97.4871 324.9918 0007166 206.7543 153.3325 15.23088630 32420
FLOCK 3P-35             
1 41989U 17008AT  17264.62568317  .00001620  00000-0  71713-4 0  9997
2 41989  97.4869 325.7087 0007405 204.1310 155.9581 15.23101513 32534
FLOCK 3P-33             
1 41990U 17008AU  17263.89800031  .00002760  00000-0  12012-3 0  9991
2 41990  97.4873 324.9989 0006947 207.3339 152.7533 15.23073415 32428
LEMUR-2-SATCHMO         
1 41991U 17008AV  17263.87320902  .00001464  00000-0  66246-4 0  9993
2 41991  97.4867 324.8744 0007024 211.7930 148.2883 15.22490641 32413
LEMUR-2-MIA-GRACE       
1 41992U 17008AW  17263.91475607  .00002270  00000-0  10016-3 0  9991
2 41992  97.4871 324.9783 0007002 211.3601 148.7219 15.22790178 32427
LEMUR-2-SMITA-SHARAD    
1 41993U 17008AX  17264.64875004  .00001688  00000-0  75581-4 0  9999
2 41993  97.4867 325.6789 0007035 208.5580 151.5272 15.22642398 32530
LEMUR-2-SPIRE-MINIONS   
1 41994U 17008AY  17263.92069827  .00002048  00000-0  90780-4 0  9997
2 41994  97.4868 324.9656 0007086 210.7104 149.3718 15.22750458 32425
LEMUR-2-RDEATON         
1 41995U 17008AZ  17264.64469307  .00001861  00000-0  82927-4 0  9991
2 41995  97.4867 325.6867 0007796 224.4687 135.5925 15.22678208 33210
LEMUR-2-NOGUECORREIG    
1 41996U 17008BA  17263.64629956  .00002369  00000-0  10431-3 0  9993
2 41996  97.4872 324.7243 0007649 228.6540 131.4039 15.22817451 32288
LEMUR-2-JOBANPUTRA      
1 41997U 17008BB  17264.15815940  .00001350  00000-0  60539-4 0  9995
2 41997  97.4871 325.2671 0007673 226.7495 133.3101 15.22946765 32455
LEMUR-2-TACHIKOMA       
1 41998U 17008BC  17263.92328203  .00001715  00000-0  76838-4 0  9995
2 41998  97.4868 324.9634 0007647 228.4645 131.5936 15.22597055 32342
BGUSAT                  
1 41999U 17008BD  17263.88545274  .00002643  00000-0  11504-3 0  9999
2 41999  97.4878 325.0290 0007585 228.4450 131.6137 15.23106636 32413
DIDO-2                  
1 42000U 17008BE  17263.86469592  .00001371  00000-0  62276-4 0  9999
2 42000  97.4865 324.8862 0007589 229.5927 130.4648 15.22477232 32416
FLOCK 3P-49             
1 42001U 17008BF  17264.14753292  .00003938  00000-0  17024-3 0  9996
2 42001  97.4874 325.2808 0007198 227.6992 132.3635 15.23040176 32982
FLOCK 3P-67             
1 42002U 17008BG  17264.21887443  .00004050  00000-0  17471-3 0  9993
2 42002  97.4871 325.3348 0007270 226.0328 134.0310 15.23094718 33157
FLOCK 3P-68             
1 42003U 17008BH  17263.89201737  .00002810  00000-0  12226-3 0  9998
2 42003  97.4870 325.0016 0007285 226.6161 133.4470 15.23067716 32745
FLOCK 3P-41             
1 42004U 17008BJ  17263.87982939  .00002881  00000-0  12515-3 0  9996
2 42004  97.4870 325.0118 0006927 229.4316 130.6318 15.23099339 32942
FLOCK 3P-45             
1 42005U 17008BK  17263.88582964  .00002940  00000-0  12770-3 0  9991
2 42005  97.4872 325.0120 0007064 228.9985 131.0642 15.23088728 33101
FLOCK 3P-48             
1 42006U 17008BL  17263.88335023  .00004029  00000-0  17381-3 0  9997
2 42006  97.4875 325.0194 0006880 229.7581 130.3054 15.23097810 32887
FLOCK 3P-43             
1 42007U 17008BM  17264.60403223  .00003240  00000-0  14039-3 0  9998
2 42007  97.4870 325.7346 0006858 226.4131 133.6537 15.23095608 33201
FLOCK 3P-42             
1 42008U 17008BN  17263.61769026  .00003226  00000-0  13991-3 0  9995
2 42008  97.4871 324.7492 0006868 230.1434 129.9199 15.23075128 32984
FLOCK 3P-61             
1 42009U 17008BP  17264.60156769  .00001600  00000-0  70871-4 0  9995
2 42009  97.4870 325.7374 0006782 228.6403 131.4250 15.23093206 33183
FLOCK 3P-40             
1 42010U 17008BQ  17263.93852422  .00004023  00000-0  17362-3 0  9998
2 42010  97.4866 325.0759 0006613 232.0233 128.0407 15.23086850 32343
FLOCK 3P-16             
1 42011U 17008BR  17263.92501446  .00001787  00000-0  78844-4 0  9992
2 42011  97.4866 325.0963 0006292 232.8519 127.2143 15.23088203 32284
FLOCK 3P-14             
1 42012U 17008BS  17263.93068722  .00002780  00000-0  12087-3 0  9999
2 42012  97.4871 325.0975 0006556 234.2764 125.7863 15.23106236 32903
FLOCK 3P-53             
1 42013U 17008BT  17264.65776861  .00004011  00000-0  17299-3 0  9999
2 42013  97.4860 325.7920 0006356 229.6323 130.4360 15.23112637 33016
FLOCK 3P-54             
1 42014U 17008BU  17264.65479900  .00004117  00000-0  17764-3 0  9998
2 42014  97.4865 325.8063 0006278 230.4756 129.5926 15.23086864 33181
PEASSS                  
1 42015U 17008BV  17263.90905551  .00001707  00000-0  75317-4 0  9993
2 42015  97.4857 325.1021 0005319 236.9087 123.1639 15.23143741 32912
AL-FARABI 1             
1 42016U 17008BW  17263.89290834  .00001950  00000-0  85091-4 0  9993
2 42016  97.4861 325.1314 0005230 236.8472 123.2263 15.23349948 33037
NAYIF-1 (EO-88)         
1 42017U 17008BX  17264.61333149  .00001870  00000-0  81682-4 0  9995
2 42017  97.4858 325.8533 0005245 233.9432 126.1319 15.23370011 33167
FLOCK 3P-23             
1 42018U 17008BY  17264.65285809  .00001546  00000-0  68652-4 0  9991
2 42018  97.4862 325.6502 0008195 202.5345 157.5533 15.23054691 31986
FLOCK 3P-76             
1 42019U 17008BZ  17264.16416530  .00003920  00000-0  16921-3 0  9994
2 42019  97.4894 325.3277 0007693 210.8253 149.2533 15.23089681 32975
FLOCK 3P-69             
1 42020U 17008CA  17264.16232871  .00004010  00000-0  17304-3 0  9997
2 42020  97.4894 325.3294 0007591 209.2175 150.8637 15.23087961 31867
FLOCK 3P-84             
1 42021U 17008CB  17263.90791105  .00002738  00000-0  11913-3 0  9994
2 42021  97.4890 325.0446 0007930 210.5722 149.5053 15.23092113 32942
FLOCK 3P-59             
1 42022U 17008CC  17264.63226885  .00003022  00000-0  13141-3 0  9996
2 42022  97.4870 325.7026 0007501 207.5662 152.5177 15.23029623 32076
FLOCK 3P-32             
1 42023U 17008CD  17264.63480619  .00003191  00000-0  13848-3 0  9995
2 42023  97.4869 325.7018 0007531 202.9288 157.1613 15.23057238 33218
FLOCK 3P-71             
1 42024U 17008CE  17264.11978660  .00002295  00000-0  10092-3 0  9999
2 42024  97.4899 325.2358 0007845 209.6532 150.4261 15.22888654 32002
FLOCK 3P-77             
1 42025U 17008CF  17263.90269737  .00004072  00000-0  17555-3 0  9990
2 42025  97.4893 325.0561 0007572 212.0737 148.0039 15.23115023 32946
FLOCK 3P-80             
1 42026U 17008CG  17263.95267454  .00002728  00000-0  11870-3 0  9990
2 42026  97.4893 325.1388 0007139 211.6513 148.4295 15.23099486 31098
FLOCK 3P-66             
1 42027U 17008CH  17264.61415407  .00001490  00000-0  66237-4 0  9991
2 42027  97.4872 325.7307 0007376 222.6068 137.4597 15.23083906 33166
FLOCK 3P-65             
1 42028U 17008CJ  17264.21777918  .00002350  00000-0  10269-3 0  9995
2 42028  97.4873 325.3399 0007204 224.5449 135.5209 15.23085444 33000
FLOCK 3P-50             
1 42029U 17008CK  17263.88640456  .00002743  00000-0  11935-3 0  9991
2 42029  97.4876 325.0218 0006961 228.5542 131.5097 15.23089747 32277
FLOCK 3P-52             
1 42030U 17008CL  17264.21649053  .00002300  00000-0  10058-3 0  9997
2 42030  97.4872 325.3380 0007087 226.0073 134.0580 15.23084216 33092
FLOCK 3P-46             
1 42031U 17008CM  17264.14530333  .00003831  00000-0  16542-3 0  9994
2 42031  97.4870 325.2745 0006973 227.6210 132.4437 15.23100109 33114
